FLOCK 4G-27             
1 62641U 25009AJ  26068.75406453  .00012587  00000+0  47455-3 0  9991
2 62641  97.3976 150.8631 0000756 322.4974  37.6212 15.27199247 63710
STARLINK-33776          
1 63851U 25093R   26068.42289423  .00039874  00000+0  14490-2 0  9998
2 63851  43.0043  79.2097 0002059 260.6442  99.4177 15.27618549 47920
